GSAT0101 (PRN E11)      
1 37846U 11060A   21179.53995179 -.00000094  00000-0  00000+0 0  9997
2 37846  56.8437  30.9774 0003443  35.7552 324.3182  1.70475276 60316
GSAT0102 (PRN E12)      
1 37847U 11060B   21179.76135905 -.00000095  00000-0  00000-0 0  9998
2 37847  56.8449  30.9708 0003214 358.5955 183.6557  1.70475492 60194
GSAT0103 (PRN E19)      
1 38857U 12055A   21177.82117003  .00000030  00000-0  00000-0 0  9997
2 38857  55.0498 151.4800 0004954 271.9600  87.9312  1.70473711 54044
GSAT0104 (PRN E20)      
1 38858U 12055B   21179.55165526  .00000036  00000-0  00000+0 0  9998
2 38858  55.0500 151.4341 0002625 277.6798  82.2431  1.70474077 54184
GSAT0201 (PRN E18)      
1 40128U 14050A   21179.62514159 -.00000116  00000-0  00000-0 0  9997
2 40128  50.4716 346.3773 1648425 111.7939 266.5573  1.85518737 44652
GSAT0202 (PRN E14)      
1 40129U 14050B   21178.80944507 -.00000115  00000-0  00000+0 0  9999
2 40129  50.5024 345.4594 1645681 112.5693 265.6805  1.85519387 46779
GSAT0203 (PRN E26)      
1 40544U 15017A   21179.90822111 -.00000095  00000-0  00000-0 0  9990
2 40544  56.6381  31.0490 0001198 244.3980 115.6390  1.70474673 38278
GSAT0204 (PRN E22)      
1 40545U 15017B   21178.98808278 -.00000094  00000-0  00000+0 0  9994
2 40545  56.6437  31.0853 0001448 211.0021 149.0408  1.70475624 38918
GSAT0205 (PRN E24)      
1 40889U 15045A   21179.34271531 -.00000032  00000-0  00000-0 0  9996
2 40889  55.8665 271.7417 0003235   8.2526 351.8071  1.70475688 36078
GSAT0206 (PRN E30)      
1 40890U 15045B   21178.38903939 -.00000027  00000-0  00000-0 0  9999
2 40890  55.8661 271.7641 0001644 337.0625  22.9848  1.70475643 36080
GSAT0209 (PRN E09)      
1 41174U 15079A   21176.80374527  .00000031  00000-0  00000-0 0  9996
2 41174  55.0651 151.2087 0005651 306.7282  53.1680  1.70473019 33797
GSAT0208 (PRN E08)      
1 41175U 15079B   21177.61000199  .00000030  00000-0  00000-0 0  9997
2 41175  55.0641 151.1853 0004841 306.3043  53.5985  1.70473132 34225
GSAT0211 (PRN E02)      
1 41549U 16030A   21179.49066078 -.00000033  00000-0  00000+0 0  9999
2 41549  56.0097 271.6294 0003612 296.3920  63.6253  1.70475220 31711
GSAT0210 (PRN E01)      
1 41550U 16030B   21180.37002502 -.00000037  00000-0  00000+0 0  9996
2 41550  56.0080 271.6067 0003314 267.2161  92.7989  1.70475453 31724
GSAT0207 (PRN E07)      
1 41859U 16069A   21177.09636099  .00000030  00000-0  00000-0 0  9992
2 41859  54.7240 151.4703 0005674 295.7858  64.1035  1.70473008 28423
GSAT0212 (PRN E03)      
1 41860U 16069B   21179.88272313  .00000036  00000-0  00000-0 0  9994
2 41860  54.7224 151.3911 0004423 313.2869  46.6302  1.70473000 28723
GSAT0213 (PRN E04)      
1 41861U 16069C   21179.07519383  .00000033  00000-0  00000-0 0  9994
2 41861  54.7239 151.4182 0005097 278.6306  81.2624  1.70473170 28572
GSAT0214 (PRN E05)      
1 41862U 16069D   21179.22223104  .00000034  00000-0  00000-0 0  9996
2 41862  54.7228 151.4090 0004257 283.3397  76.5641  1.70473089 28709
GSAT0215 (PRN E21)      
1 43055U 17079A   21179.71312673 -.00000034  00000-0  00000+0 0  9998
2 43055  55.9837 271.4610 0002554 259.7812 100.2444  1.70474612 22053
GSAT0216 (PRN E25)      
1 43056U 17079B   21179.41903149 -.00000032  00000-0  00000-0 0  9999
2 43056  55.9848 271.4688 0004406 267.0966  92.9078  1.70474681 22068
GSAT0217 (PRN E27)      
1 43057U 17079C   21177.87941716 -.00000024  00000-0  00000-0 0  9991
2 43057  55.9836 271.5113 0003733 279.2479  80.7644  1.70474651 22023
GSAT0218 (PRN E31)      
1 43058U 17079D   21179.85918026 -.00000034  00000-0  00000+0 0  9990
2 43058  55.9825 271.4544 0004777 264.1869  95.8129  1.70474661 22053
GSAT0221 (PRN E15)      
1 43564U 18060A   21177.99811507 -.00000090  00000-0  00000-0 0  9995
2 43564  57.0221  30.8260 0002088 294.1024  65.9301  1.70475591 18204
GSAT0222 (PRN E33)      
1 43565U 18060B   21176.45821247 -.00000085  00000-0  00000+0 0  9991
2 43565  57.0229  30.8679 0002060 313.2115  46.8302  1.70475537 18222
GSAT0219 (PRN E36)      
1 43566U 18060C   21179.61169981 -.00000094  00000-0  00000+0 0  9993
2 43566  57.0251  30.7840 0001712 320.0234  40.0141  1.70475666 18251
GSAT0220 (PRN E13)      
1 43567U 18060D   21178.07180048 -.00000091  00000-0  00000-0 0  9998
2 43567  57.0245  30.8256 0001631 309.8890  50.1508  1.70475438 18212
